GALAXY 30 (G-30)        
1 46114U 20056C   24131.62785145  .00000034  00000+0  00000+0 0  9993
2 46114   0.0170 286.7866 0001923 121.6685 281.4824  1.00271749 13591
GAOFEN-13 01            
1 46610U 20071A   24131.46549520 -.00000366  00000+0  00000+0 0  9997
2 46610   0.5224  87.3305 0013504 273.1946 153.4933  1.00269261 13226
TIANTONG-1 2            
1 46916U 20082A   24131.47465775 -.00000360  00000+0  00000+0 0  9992
2 46916   2.4398 293.4464 0000818 150.7152  80.3699  1.00267899 12958
LUCAS (JDRS-1)          
1 47202U 20089A   24129.75466123 -.00000236  00000+0  00000+0 0  9996
2 47202   0.0139 277.5652 0003069 112.7205 199.2156  1.00267893 12709
SXM-7                   
1 47240U 20096A   24131.45650418 -.00000208  00000+0  00000+0 0  9997
2 47240   0.0114  36.1017 0002217  99.9203 171.7167  1.00282280 12610
CMS-01                  
1 47256U 20099A   24130.88104844 -.00000167  00000+0  00000+0 0  9994
2 47256   0.0629  92.5881 0005425 194.7827 340.9812  1.00270720 12492
TURKSAT 5A              
1 47306U 21001A   24129.75758292  .00000153  00000+0  00000+0 0  9994
2 47306   0.0079  49.5636 0000168 207.1458 274.0010  1.00274238 12254
TIANTONG-1 3            
1 47321U 21003A   24130.88104844 -.00000158  00000+0  00000+0 0  9993
2 47321   2.9517 311.8463 0002454  85.0450 229.9532  1.00269963 12265
TJS-6                   
1 47613U 21010A   24131.54702204  .00000039  00000+0  00000+0 0  9990
2 47613   0.2840  86.1224 0001502  34.0102 124.0624  1.00271087 12118
SBIRS GEO-5 (USA 315)   
1 48618U 21042A   24130.77019440  .00000109  00000+0  00000+0 0  9996
2 48618   6.2076 325.6301 0001677  79.9504 120.6461  1.00272875 11054
FENGYUN 4B              
1 48808U 21047A   24131.45036090 -.00000332  00000+0  00000+0 0  9997
2 48808   0.1158 291.6615 0005400 192.7038  11.0785  1.00267761 10883
SXM-8                   
1 48838U 21049A   24130.42300472 -.00000206  00000+0  00000+0 0  9996
2 48838   0.0235  18.5791 0002765  10.1849 266.0272  1.00271246 10893
TIANLIAN 1-05           
1 49011U 21063A   24130.86459427  .00000106  00000+0  00000+0 0  9997
2 49011   0.4004 281.9046 0001839 128.7536 145.5409  1.00271366 10373
STAR ONE D2             
1 49055U 21069A   24129.36690287 -.00000266  00000+0  00000+0 0  9993
2 49055   0.0181 156.7034 0001334 261.9786 230.0966  1.00270303 10183
EUTELSAT QUANTUM        
1 49056U 21069B   24129.77187078  .00000125  00000+0  00000+0 0  9991
2 49056   0.0172 307.8416 0001792  84.3407 160.4837  1.00272255 10217
CHINASAT 2E (ZX 2E)     
1 49062U 21071A   24130.87867247 -.00000294  00000+0  00000+0 0  9995
2 49062   0.0197  20.7273 0002013 109.8814 151.9228  1.00273510 10332
TJS-7                   
1 49115U 21077A   24131.34631521 -.00000127  00000+0  00000+0 0  9992
2 49115   0.2150  83.7092 0000526 330.6370 199.5266  1.00271298  1878
CHINASAT 9B             
1 49125U 21080A   24131.44914742 -.00000315  00000+0  00000+0 0  9996
2 49125   0.0072 314.2154 0001278  97.7055  79.8721  1.00268209  9958
SHIJIAN-21 (SJ-21)      
1 49330U 21094A   24131.70084994 -.00000334  00000+0  00000+0 0  9996
2 49330   9.7438  45.5329 0080021  31.6933 176.2858  1.00330613  9559
SES-17                  
1 49332U 21095A   24130.36865653 -.00000274  00000+0  00000+0 0  9992
2 49332   0.0160 320.2883 0001005  69.8718 263.1337  1.00271161 10130
SYRACUSE 4A             
1 49333U 21095B   24128.77689972  .00000134  00000+0  00000+0 0  9997
2 49333   0.0186 309.1453 0001526  86.3858 155.7721  1.00273190 10233
QZS-1R                  
1 49336U 21096A   24128.81558902 -.00000242  00000+0  00000+0 0  9995
2 49336  35.8640  91.1373 0753627 270.7388 293.0897  1.00272799  9286
CHINASAT 1D (ZX 1D)     
1 49505U 21114A   24130.62051896 -.00000338  00000+0  00000+0 0  9992
2 49505   0.0688  77.0457 0002242 107.7151  36.7192  1.00270566  9126
STPSAT-6                
1 49817U 21118A   24131.44060222 -.00000048  00000+0  00000+0 0  9994
2 49817   0.0475  90.9211 0000780 274.9776 269.7939  1.00272083  8866
LDPE-1                  
1 49818U 21118B   24131.14313012 -.00000226  00000+0  00000+0 0  9998
2 49818   2.1365  88.1579 0000766  44.9059  72.5512  1.00002220  8936
EXPRESS AMU-7           
1 50001U 21123A   24130.96313841 -.00000245  00000+0  00000+0 0  9990
2 50001   0.0209 281.8230 0000230  32.7104  45.4650  1.00272546  8846
EXPRESS AMU-3           
1 50002U 21123B   24131.07951680 -.00000324  00000+0  00000+0 0  9991
2 50002   0.0237 282.5878 0000284  82.8224 354.5902  1.00272724  8822
TIANLIAN 2-02           
1 50005U 21124A   24131.56999326 -.00000017  00000+0  00000+0 0  9997
2 50005   0.7677 274.4218 0001863  96.2424 234.3145  1.00271385  8919
TURKSAT 5B              
1 50212U 21126A   24129.90510774  .00000144  00000+0  00000+0 0  9990
2 50212   0.0686 350.4460 0004364 359.2308 245.3903  1.00271922  8582
INMARSAT 6-F1           
1 50319U 21128A   24129.81466687 -.00000173  00000+0  00000+0 0  9996
2 50319   0.0133 294.8088 0000178 318.4059 350.9309  1.00270357  8543
SHIYAN 12 01 (SY-12 01) 
1 50321U 21129A   24131.79218476 -.00000325  00000+0  00000+0 0  9990
2 50321   1.6893  91.5164 0000530  68.9037  92.4372  1.00472802  8815
SHIYAN 12 02 (SY-12 02) 
1 50322U 21129B   24131.71073766 -.00000194  00000+0  00000+0 0  9998
2 50322   1.6879  91.5222 0001600 208.1781 339.8893  1.00108782  8817
TJS-9                   
1 50574U 21135A   24131.48056197 -.00000302  00000+0  00000+0 0  9998
2 50574   0.0394 293.2980 0005235  97.4605 148.2166  1.00271569  8746
USA 325                 
1 51281U 22006B   24127.85367294 -.00000160  00000+0  00000+0 0  9993
2 51281   0.2249  83.3121 0009496 339.5200 197.5585  1.00043701  8390
GOES 18                 
1 51850U 22021A   24131.40150708  .00000094  00000+0  00000+0 0  9993
2 51850   0.0095  51.5440 0000525 279.3247 265.3476  1.00272256  8073
CHINASAT 6D (ZX 6D)     
1 52255U 22038A   24131.01835169 -.00000356  00000+0  00000+0 0  9991
2 52255   0.0211 273.7466 0001129  60.6057  25.6423  1.00271736  7722
NILESAT 301             
1 52817U 22061A   24131.40464992 -.00000061  00000+0  00000+0 0  9999
2 52817   0.0619  37.7117 0005410 350.8388 338.7894  1.00271519  7030
CMS-02 (GSAT 24)        
1 52903U 22067A   24130.88104844 -.00000167  00000+0  00000+0 0  9996
2 52903   0.0275 264.6578 0007610 180.8455 182.8521  1.00270961  6894
MEASAT 3D               
1 52904U 22067B   24130.78509050 -.00000244  00000+0  00000+0 0  9990
2 52904   0.0315   2.3793 0001860   0.2415 239.5893  1.00271956  6930
SES-22                  
1 52933U 22071A   24131.32655956  .00000086  00000+0  00000+0 0  9998
2 52933   0.0477  94.7127 0000900 299.9635 176.5114  1.00269845  6842
WFOV (USA 332)          
1 52940U 22073A   24131.57451240 -.00000365  00000+0  00000+0 0  9996
2 52940   1.7300  88.6468 0001301 238.7294 227.5767  1.00268338  6679
TIANLIAN 2-03           
1 53100U 22078A   24130.11372614  .00000070  00000+0  00000+0 0  9998
2 53100   1.3271 278.9327 0002567 130.7847 229.1745  1.00273201  6847
SBIRS GEO-6 (USA 336)   
1 53355U 22092A   24130.54039171 -.00000297  00000+0  00000+0 0  9993
2 53355   4.6540 311.1128 0003399  78.5447 171.7157  1.00271220  6525
EUTELSAT KONNECT VHTS   
1 53765U 22110A   24130.10257750  .00000016  00000+0  00000+0 0  9994
2 53765   0.0674  96.3658 0002739 326.4610 204.1677  1.00272676  6087
CHINASAT 1E (ZX 1E)     
1 53813U 22112A   24130.88104844 -.00000152  00000+0  00000+0 0  9992
2 53813   0.0554  64.7813 0001455 340.1847 221.8078  1.00271288  6134
SES-20                  
1 53960U 22123A   24130.52602833 -.00000101  00000+0  00000+0 0  9993
2 53960   0.0422 106.0080 0001188 311.1995 256.8932  1.00260164  5836
SES-21                  
1 53961U 22123B   24131.42914566  .00000067  00000+0  00000+0 0  9993
2 53961   0.0177  21.5018 0001065  25.1924 205.5243  1.00270472  5855
GALAXY 33 (G-33)        
1 54026U 22128A   24131.32967733  .00000077  00000+0  00000+0 0  9995
2 54026   0.0105 341.7144 0001601  58.0327 174.5466  1.00271177  6052
GALAXY 34 (G-34)        
1 54027U 22128B   24131.32961447  .00000056  00000+0  00000+0 0  9999
2 54027   0.0136 316.0597 0001604  86.9130 175.3371  1.00270637  6211
ANGOSAT 2               
1 54033U 22131A   24130.09702017  .00000135  00000+0  00000+0 0  9997
2 54033   0.0028 161.5539 0001374 306.4048 177.3710  1.00276960  5762
EUTELSAT HOTBIRD 13F    
1 54048U 22134A   24129.58313282  .00000086  00000+0  00000+0 0  9995
2 54048   0.0559 291.1751 0001781  62.3666  96.2672  1.00271842  5725
LDPE-2                  
1 54219U 22144A   24127.20257708 -.00000245  00000+0  00000+0 0  9991
2 54219   3.7238  65.1486 0001135  34.1551 154.0759  1.00621802  4066
EUTELSAT HOTBIRD 13G    
1 54225U 22146A   24130.86085132  .00000085  00000+0  00000+0 0  9997
2 54225   0.0434 247.1480 0002147 296.8029   7.1129  1.00271401  5525
CHINASAT 19 (ZX 19)     
1 54230U 22148A   24131.56224562 -.00000083  00000+0  00000+0 0  9994
2 54230   0.0411 271.7399 0004339 346.4384 336.4384  1.00269974  5678
GALAXY 31 (G-31)        
1 54243U 22153A   24131.43497191  .00000011  00000+0  00000+0 0  9990
2 54243   0.0022   2.3701 0001264  35.2513 226.6876  1.00270642  5430
GALAXY 32 (G-32)        
1 54244U 22153B   24131.38805605 -.00000177  00000+0  00000+0 0  9992
2 54244   0.0125 346.9555 0002502  37.2080 253.2029  1.00271263  5443
EUTELSAT 10B            
1 54259U 22157A   24130.63820181  .00000067  00000+0  00000+0 0  9992
2 54259   0.0621  93.6043 0000582 222.9816 151.1059  1.00275070  5320
GALAXY 35 (G-35)        
1 54741U 22170A   24131.45179104 -.00000165  00000+0  00000+0 0  9996
2 54741   0.0046 323.0686 0001184  87.7911 247.4165  1.00271239  5197
GALAXY 36 (G-36)        
1 54742U 22170B   24131.38880855 -.00000188  00000+0  00000+0 0  9996
2 54742   0.0163 282.6871 0002591 153.9913 202.9646  1.00271767  5078
